STARLINK-37096          
1 68239U 26054H   26086.25003472 -.00019453  00000+0 -95238-4 0  9994
2 68239  53.1588 224.5981 0000715  90.0673 206.7136 15.80874857  2739
STARLINK-37092          
1 68240U 26054J   26086.25003472  .00004163  00000+0  24669-4 0  9996
2 68240  53.1589 224.6068 0000814  89.0531 203.4943 15.80825239  2730
STARLINK-37094          
1 68241U 26054K   26086.25003472  .00068231  00000+0  34743-3 0  9996
2 68241  53.1589 224.5890 0001034  78.9513 222.1072 15.80815067  2723
STARLINK-36356          
1 68242U 26054L   26086.25003472  .00015941  00000+0  84292-4 0  9992
2 68242  53.1590 224.5800 0000893  98.3455 206.9835 15.80837199  2772
STARLINK-36345          
1 68243U 26054M   26086.25003472 -.00028736  00000+0 -14252-3 0  9999
2 68243  53.1592 224.5713 0001018  81.7699 227.8388 15.80874565  2777
STARLINK-36310          
1 68244U 26054N   26086.25003472  .00024674  00000+0  12834-3 0  9999
2 68244  53.1593 224.5536 0001319  94.8295 223.2993 15.80847938  2779
STARLINK-36247          
1 68245U 26054P   26086.25003472 -.00046167  00000+0 -23145-3 0  9990
2 68245  53.1592 224.5628 0001060 119.9119 193.9595 15.80887746  2770
STARLINK-37043          
1 68246U 26054Q   26086.25003472 -.00011618  00000+0 -55422-4 0  9998
2 68246  53.1593 224.5450 0000999  83.6378 238.7652 15.80864425  2736
STARLINK-37044          
1 68247U 26054R   26086.25003472  .00120784  00000+0  60883-3 0  9998
2 68247  53.1595 224.5361 0001049  86.7055 239.9829 15.80806062  2735
STARLINK-36997          
1 68248U 26054S   26086.25003472  .00047572  00000+0  24360-3 0  9992
2 68248  53.1594 224.5272 0001479  84.8263 246.1332 15.80839718  2736
STARLINK-37141          
1 68249U 26054T   26086.25003472 -.00038640  00000+0 -19296-3 0  9993
2 68249  53.1595 224.5186 0000502  48.7156 286.4969 15.80890598  2813
STARLINK-37087          
1 68250U 26054U   26086.25003472  .00016512  00000+0  87024-4 0  9992
2 68250  53.1595 224.5099 0001105 105.0973 234.3746 15.80876109  2730
