CCSDS_OMM_VERS = 2.0
CREATION_DATE  = 
ORIGINATOR     = 

OBJECT_NAME    = STARLINK-37096
OBJECT_ID      = 2026-054H
CENTER_NAME    = EARTH
REF_FRAME      = TEME
TIME_SYSTEM    = UTC
MEAN_ELEMENT_THEORY = SGP/SGP4

EPOCH          = 2026-03-27T06:00:02.999808
MEAN_MOTION    = 15.80874857
ECCENTRICITY   = .00007154
INCLINATION    = 53.1588
RA_OF_ASC_NODE = 224.5981
ARG_OF_PERICENTER = 90.0673
MEAN_ANOMALY   = 206.7136

EPHEMERIS_TYPE = 0
CLASSIFICATION_TYPE = U
NORAD_CAT_ID   = 68239
ELEMENT_SET_NO = 999
REV_AT_EPOCH   = 273
BSTAR          = -.95238432E-4
MEAN_MOTION_DOT = -.19453E-3
MEAN_MOTION_DDOT = 0

CCSDS_OMM_VERS = 2.0
CREATION_DATE  = 
ORIGINATOR     = 

OBJECT_NAME    = STARLINK-37092
OBJECT_ID      = 2026-054J
CENTER_NAME    = EARTH
REF_FRAME      = TEME
TIME_SYSTEM    = UTC
MEAN_ELEMENT_THEORY = SGP/SGP4

EPOCH          = 2026-03-27T06:00:02.999808
MEAN_MOTION    = 15.80825239
ECCENTRICITY   = .00008149
INCLINATION    = 53.1589
RA_OF_ASC_NODE = 224.6068
ARG_OF_PERICENTER = 89.0531
MEAN_ANOMALY   = 203.4943

EPHEMERIS_TYPE = 0
CLASSIFICATION_TYPE = U
NORAD_CAT_ID   = 68240
ELEMENT_SET_NO = 999
REV_AT_EPOCH   = 273
BSTAR          = .24669479E-4
MEAN_MOTION_DOT = .4163E-4
MEAN_MOTION_DDOT = 0

CCSDS_OMM_VERS = 2.0
CREATION_DATE  = 
ORIGINATOR     = 

OBJECT_NAME    = STARLINK-37094
OBJECT_ID      = 2026-054K
CENTER_NAME    = EARTH
REF_FRAME      = TEME
TIME_SYSTEM    = UTC
MEAN_ELEMENT_THEORY = SGP/SGP4

EPOCH          = 2026-03-27T06:00:02.999808
MEAN_MOTION    = 15.80815067
ECCENTRICITY   = .00010342
INCLINATION    = 53.1589
RA_OF_ASC_NODE = 224.5890
ARG_OF_PERICENTER = 78.9513
MEAN_ANOMALY   = 222.1072

EPHEMERIS_TYPE = 0
CLASSIFICATION_TYPE = U
NORAD_CAT_ID   = 68241
ELEMENT_SET_NO = 999
REV_AT_EPOCH   = 272
BSTAR          = .34742526E-3
MEAN_MOTION_DOT = .68231E-3
MEAN_MOTION_DDOT = 0

CCSDS_OMM_VERS = 2.0
CREATION_DATE  = 
ORIGINATOR     = 

OBJECT_NAME    = STARLINK-36356
OBJECT_ID      = 2026-054L
CENTER_NAME    = EARTH
REF_FRAME      = TEME
TIME_SYSTEM    = UTC
MEAN_ELEMENT_THEORY = SGP/SGP4

EPOCH          = 2026-03-27T06:00:02.999808
MEAN_MOTION    = 15.80837199
ECCENTRICITY   = .00008931
INCLINATION    = 53.1590
RA_OF_ASC_NODE = 224.5800
ARG_OF_PERICENTER = 98.3455
MEAN_ANOMALY   = 206.9835

EPHEMERIS_TYPE = 0
CLASSIFICATION_TYPE = U
NORAD_CAT_ID   = 68242
ELEMENT_SET_NO = 999
REV_AT_EPOCH   = 277
BSTAR          = .84291727E-4
MEAN_MOTION_DOT = .15941E-3
MEAN_MOTION_DDOT = 0

CCSDS_OMM_VERS = 2.0
CREATION_DATE  = 
ORIGINATOR     = 

OBJECT_NAME    = STARLINK-36345
OBJECT_ID      = 2026-054M
CENTER_NAME    = EARTH
REF_FRAME      = TEME
TIME_SYSTEM    = UTC
MEAN_ELEMENT_THEORY = SGP/SGP4

EPOCH          = 2026-03-27T06:00:02.999808
MEAN_MOTION    = 15.80874565
ECCENTRICITY   = .00010186
INCLINATION    = 53.1592
RA_OF_ASC_NODE = 224.5713
ARG_OF_PERICENTER = 81.7699
MEAN_ANOMALY   = 227.8388

EPHEMERIS_TYPE = 0
CLASSIFICATION_TYPE = U
NORAD_CAT_ID   = 68243
ELEMENT_SET_NO = 999
REV_AT_EPOCH   = 277
BSTAR          = -.14252416E-3
MEAN_MOTION_DOT = -.28736E-3
MEAN_MOTION_DDOT = 0

CCSDS_OMM_VERS = 2.0
CREATION_DATE  = 
ORIGINATOR     = 

OBJECT_NAME    = STARLINK-36310
OBJECT_ID      = 2026-054N
CENTER_NAME    = EARTH
REF_FRAME      = TEME
TIME_SYSTEM    = UTC
MEAN_ELEMENT_THEORY = SGP/SGP4

EPOCH          = 2026-03-27T06:00:02.999808
MEAN_MOTION    = 15.80847938
ECCENTRICITY   = .00013191
INCLINATION    = 53.1593
RA_OF_ASC_NODE = 224.5536
ARG_OF_PERICENTER = 94.8295
MEAN_ANOMALY   = 223.2993

EPHEMERIS_TYPE = 0
CLASSIFICATION_TYPE = U
NORAD_CAT_ID   = 68244
ELEMENT_SET_NO = 999
REV_AT_EPOCH   = 277
BSTAR          = .12833728E-3
MEAN_MOTION_DOT = .24674E-3
MEAN_MOTION_DDOT = 0

CCSDS_OMM_VERS = 2.0
CREATION_DATE  = 
ORIGINATOR     = 

OBJECT_NAME    = STARLINK-36247
OBJECT_ID      = 2026-054P
CENTER_NAME    = EARTH
REF_FRAME      = TEME
TIME_SYSTEM    = UTC
MEAN_ELEMENT_THEORY = SGP/SGP4

EPOCH          = 2026-03-27T06:00:02.999808
MEAN_MOTION    = 15.80887746
ECCENTRICITY   = .00010602
INCLINATION    = 53.1592
RA_OF_ASC_NODE = 224.5628
ARG_OF_PERICENTER = 119.9119
MEAN_ANOMALY   = 193.9595

EPHEMERIS_TYPE = 0
CLASSIFICATION_TYPE = U
NORAD_CAT_ID   = 68245
ELEMENT_SET_NO = 999
REV_AT_EPOCH   = 277
BSTAR          = -.23145028E-3
MEAN_MOTION_DOT = -.46167E-3
MEAN_MOTION_DDOT = 0

CCSDS_OMM_VERS = 2.0
CREATION_DATE  = 
ORIGINATOR     = 

OBJECT_NAME    = STARLINK-37043
OBJECT_ID      = 2026-054Q
CENTER_NAME    = EARTH
REF_FRAME      = TEME
TIME_SYSTEM    = UTC
MEAN_ELEMENT_THEORY = SGP/SGP4

EPOCH          = 2026-03-27T06:00:02.999808
MEAN_MOTION    = 15.80864425
ECCENTRICITY   = .00009993
INCLINATION    = 53.1593
RA_OF_ASC_NODE = 224.5450
ARG_OF_PERICENTER = 83.6378
MEAN_ANOMALY   = 238.7652

EPHEMERIS_TYPE = 0
CLASSIFICATION_TYPE = U
NORAD_CAT_ID   = 68246
ELEMENT_SET_NO = 999
REV_AT_EPOCH   = 273
BSTAR          = -.55422026E-4
MEAN_MOTION_DOT = -.11618E-3
MEAN_MOTION_DDOT = 0

CCSDS_OMM_VERS = 2.0
CREATION_DATE  = 
ORIGINATOR     = 

OBJECT_NAME    = STARLINK-37044
OBJECT_ID      = 2026-054R
CENTER_NAME    = EARTH
REF_FRAME      = TEME
TIME_SYSTEM    = UTC
MEAN_ELEMENT_THEORY = SGP/SGP4

EPOCH          = 2026-03-27T06:00:02.999808
MEAN_MOTION    = 15.80806062
ECCENTRICITY   = .00010493
INCLINATION    = 53.1595
RA_OF_ASC_NODE = 224.5361
ARG_OF_PERICENTER = 86.7055
MEAN_ANOMALY   = 239.9829

EPHEMERIS_TYPE = 0
CLASSIFICATION_TYPE = U
NORAD_CAT_ID   = 68247
ELEMENT_SET_NO = 999
REV_AT_EPOCH   = 273
BSTAR          = .60883399E-3
MEAN_MOTION_DOT = .120784E-2
MEAN_MOTION_DDOT = 0

CCSDS_OMM_VERS = 2.0
CREATION_DATE  = 
ORIGINATOR     = 

OBJECT_NAME    = STARLINK-36997
OBJECT_ID      = 2026-054S
CENTER_NAME    = EARTH
REF_FRAME      = TEME
TIME_SYSTEM    = UTC
MEAN_ELEMENT_THEORY = SGP/SGP4

EPOCH          = 2026-03-27T06:00:02.999808
MEAN_MOTION    = 15.80839718
ECCENTRICITY   = .00014792
INCLINATION    = 53.1594
RA_OF_ASC_NODE = 224.5272
ARG_OF_PERICENTER = 84.8263
MEAN_ANOMALY   = 246.1332

EPHEMERIS_TYPE = 0
CLASSIFICATION_TYPE = U
NORAD_CAT_ID   = 68248
ELEMENT_SET_NO = 999
REV_AT_EPOCH   = 273
BSTAR          = .24360136E-3
MEAN_MOTION_DOT = .47572E-3
MEAN_MOTION_DDOT = 0

CCSDS_OMM_VERS = 2.0
CREATION_DATE  = 
ORIGINATOR     = 

OBJECT_NAME    = STARLINK-37141
OBJECT_ID      = 2026-054T
CENTER_NAME    = EARTH
REF_FRAME      = TEME
TIME_SYSTEM    = UTC
MEAN_ELEMENT_THEORY = SGP/SGP4

EPOCH          = 2026-03-27T06:00:02.999808
MEAN_MOTION    = 15.80890598
ECCENTRICITY   = .00005026
INCLINATION    = 53.1595
RA_OF_ASC_NODE = 224.5186
ARG_OF_PERICENTER = 48.7156
MEAN_ANOMALY   = 286.4969

EPHEMERIS_TYPE = 0
CLASSIFICATION_TYPE = U
NORAD_CAT_ID   = 68249
ELEMENT_SET_NO = 999
REV_AT_EPOCH   = 281
BSTAR          = -.19295954E-3
MEAN_MOTION_DOT = -.3864E-3
MEAN_MOTION_DDOT = 0

CCSDS_OMM_VERS = 2.0
CREATION_DATE  = 
ORIGINATOR     = 

OBJECT_NAME    = STARLINK-37087
OBJECT_ID      = 2026-054U
CENTER_NAME    = EARTH
REF_FRAME      = TEME
TIME_SYSTEM    = UTC
MEAN_ELEMENT_THEORY = SGP/SGP4

EPOCH          = 2026-03-27T06:00:02.999808
MEAN_MOTION    = 15.80876109
ECCENTRICITY   = .00011059
INCLINATION    = 53.1595
RA_OF_ASC_NODE = 224.5099
ARG_OF_PERICENTER = 105.0973
MEAN_ANOMALY   = 234.3746

EPHEMERIS_TYPE = 0
CLASSIFICATION_TYPE = U
NORAD_CAT_ID   = 68250
ELEMENT_SET_NO = 999
REV_AT_EPOCH   = 273
BSTAR          = .87023903E-4
MEAN_MOTION_DOT = .16512E-3
MEAN_MOTION_DDOT = 0

